NORAD_CAT_ID,OBJECT_NAME,OBJECT_TYPE,EPOCH,MEAN_MOTION,ECCENTRICITY,INCLINATION,RA_OF_ASC_NODE,ARG_OF_PERICENTER,MEAN_ANOMALY,BSTAR,MEAN_MOTION_DOT,MEAN_MOTION_DDOT,TLE_LINE0,TLE_LINE1,TLE_LINE2,SEMIMAJOR_AXIS,PERIOD,APOGEE,PERIGEE,DECAYED
52623.0,STARLINK-3986,PAYLOAD,2022-10-05 23:38:48,15.08833145,0.0001858,53.2163,123.7584,38.0475,322.0648,0.00030084,4.502e-05,0.0,0 STARLINK-3986,1 52623U 22052AB  22278.98528514  .00004502  00000-0  30084-3 0  9991,2 52623  53.2163 123.7584 0001858  38.0475 322.0648 15.08833145 22174,6917.901,95.438,541.052,538.481,0.0
52623.0,STARLINK-3986,PAYLOAD,2022-10-06 18:43:26,15.08839098,0.0001906,53.216,120.1909,36.1962,323.9159,0.00030099,4.505e-05,0.0,0 STARLINK-3986,1 52623U 22052AB  22279.78016743  .00004505  00000-0  30099-3 0  9995,2 52623  53.2160 120.1909 0001906  36.1962 323.9159 15.08839098 22290,6917.8830000000025,95.438,541.067,538.43,0.0
52623.0,STARLINK-3986,PAYLOAD,2022-10-07 12:12:40,15.08847107,0.0001683,53.2165,116.9177,46.7658,313.3475,0.00036278,5.491e-05,0.0,0 STARLINK-3986,1 52623U 22052AB  22280.50880409  .00005491  00000-0  36278-3 0  9995,2 52623  53.2165 116.9177 0001683  46.7658 313.3475 15.08847107 22403,6917.859,95.437,540.888,538.559,0.0
52623.0,STARLINK-3986,PAYLOAD,2022-10-07 20:09:36,15.08845288,0.0001815,53.2166,115.4306,43.9056,316.208,0.0002531,3.743e-05,0.0,0 STARLINK-3986,1 52623U 22052AB  22280.84000456  .00003743  00000-0  25310-3 0  9991,2 52623  53.2166 115.4306 0001815  43.9056 316.2080 15.08845288 22839,6917.864000000001,95.437,540.985,538.474,0.0
52623.0,STARLINK-3986,PAYLOAD,2022-10-08 12:03:27,15.08842048,0.0001918,53.2169,112.458,46.5269,313.5882,8.2742e-05,1.029e-05,0.0,0 STARLINK-3986,1 52623U 22052AB  22281.50240443  .00001029  00000-0  82742-4 0  9995,2 52623  53.2169 112.4580 0001918  46.5269 313.5882 15.08842048 22552,6917.874,95.437,541.066,538.4119999999998,0.0
52623.0,STARLINK-3986,PAYLOAD,2022-10-08 20:00:23,15.08832611,0.0001929,53.2159,110.9695,38.5387,321.5742,-0.00011363,-2.096e-05,0.0,0 STARLINK-3986,1 52623U 22052AB  22281.83360767 -.00002096  00000-0 -11363-3 0  9990,2 52623  53.2159 110.9695 0001929  38.5387 321.5742 15.08832611 22981,6917.903,95.438,541.102,538.434,0.0
52623.0,STARLINK-3986,PAYLOAD,2022-10-09 00:46:33,15.08833632,0.0001855999999999,53.2169,110.0786,45.7096,314.4048,-2.423e-05,-6.74e-06,0.0,0 STARLINK-3986,1 52623U 22052AB  22282.03233025 -.00000674  00000-0 -24230-4 0  9997,2 52623  53.2169 110.0786 0001856  45.7096 314.4048 15.08833632 22636,6917.9,95.438,541.049,538.481,0.0
52623.0,STARLINK-3986,PAYLOAD,2022-10-09 19:51:10,15.08846771,0.000198,53.2165,106.5108,46.5315,313.5841,0.00026387,3.915e-05,0.0,0 STARLINK-3986,1 52623U 22052AB  22282.82720566  .00003915  00000-0  26387-3 0  9998,2 52623  53.2165 106.5108 0001980  46.5315 313.5841 15.08846771 23136,6917.86,95.437,541.094,538.355,0.0
52623.0,STARLINK-3986,PAYLOAD,2022-10-10 05:23:29,15.0884835,0.0001982,53.2161,104.7263,46.184,313.9316,0.00037695,5.718e-05,0.0,0 STARLINK-3986,1 52623U 22052AB  22283.22464522  .00005718  00000-0  37695-3 0  9997,2 52623  53.2161 104.7263 0001982  46.1840 313.9316 15.08848350 22815,6917.855,95.437,541.091,538.349,0.0
52623.0,STARLINK-3986,PAYLOAD,2022-10-10 18:06:34,15.08848181,0.0001972,53.2162,102.3472,46.7995,313.3162,0.00024064,3.545e-05,0.0,0 STARLINK-3986,1 52623U 22052AB  22283.75456377  .00003545  00000-0  24064-3 0  9996,2 52623  53.2162 102.3472 0001972  46.7995 313.3162 15.08848181 23274,6917.855,95.437,541.085,538.356,0.0
52623.0,STARLINK-3986,PAYLOAD,2022-10-10 19:41:57,15.08848106,0.0001938,53.216,102.0495,44.8335,315.2813,0.00022547,3.303e-05,0.0,0 STARLINK-3986,1 52623U 22052AB  22283.82080344  .00003303  00000-0  22547-3 0  9997,2 52623  53.2160 102.0495 0001938  44.8335 315.2813 15.08848106 22903,6917.856,95.437,541.061,538.38,0.0
52623.0,STARLINK-3986,PAYLOAD,2022-10-10 22:52:43,15.08838488,0.0001906,53.2163,101.4556,42.2579,317.856,3.2094e-05,2.23e-06,0.0,0 STARLINK-3986,1 52623U 22052AB  22283.95328694  .00000223  00000-0  32094-4 0  9991,2 52623  53.2163 101.4556 0001906  42.2579 317.8560 15.08838488 23308,6917.885,95.438,541.069,538.431,0.0
52623.0,STARLINK-3986,PAYLOAD,2022-10-11 11:35:49,15.0883423,0.0002435999999999,53.2161,99.0764,50.1602,309.9605,-3.2614e-05,-8.07e-06,0.0,0 STARLINK-3986,1 52623U 22052AB  22284.48320993 -.00000807  00000-0 -32614-4 0  9992,2 52623  53.2161  99.0764 0002436  50.1602 309.9605 15.08834230 23003,6917.898,95.438,541.448,538.078,0.0
52623.0,STARLINK-3986,PAYLOAD,2022-10-11 16:21:59,15.0882917,0.0001985,53.2165,98.1842,46.1745,313.9411,-0.00014079,-2.528e-05,0.0,0 STARLINK-3986,1 52623U 22052AB  22284.68193399 -.00002528  00000-0 -14079-3 0  9998,2 52623  53.2165  98.1842 0001985  46.1745 313.9411 15.08829170 23417,6917.913000000001,95.438,541.1519999999998,538.405,0.0
52623.0,STARLINK-3986,PAYLOAD,2022-10-11 19:32:45,15.08829587,0.0002008999999999,53.2165,97.5895,46.2167,313.8991,-0.0001049,-1.957e-05,0.0,0 STARLINK-3986,1 52623U 22052AB  22284.81441497 -.00001957  00000-0 -10490-3 0  9996,2 52623  53.2165  97.5895 0002009  46.2167 313.8991 15.08829587 23059,6917.9119999999975,95.438,541.1669999999998,538.387,0.0
52623.0,STARLINK-3986,PAYLOAD,2022-10-11 22:43:31,15.08830894,0.000202,53.2165,96.9947,45.9756,314.1402,-4.762e-05,-1.046e-05,0.0,0 STARLINK-3986,1 52623U 22052AB  22284.94689561 -.00001046  00000-0 -47620-4 0  9991,2 52623  53.2165  96.9947 0002020  45.9756 314.1402 15.08830894 23079,6917.908,95.438,541.1709999999998,538.376,0.0
52623.0,STARLINK-3986,PAYLOAD,2022-10-12 17:48:09,15.08845673,0.0002059,53.2167,93.4263,43.1167,316.9986,0.00050721,7.795e-05,0.0,0 STARLINK-3986,1 52623U 22052AB  22285.74177706  .00007795  00000-0  50721-3 0  9993,2 52623  53.2167  93.4263 0002059  43.1167 316.9986 15.08845673 23575,6917.863,95.437,541.1519999999998,538.304,0.0
52623.0,STARLINK-3986,PAYLOAD,2022-10-12 19:23:32,15.08846878,0.0002086999999999,53.2168,93.1292,43.0805,317.035,0.00055214,8.512e-05,0.0,0 STARLINK-3986,1 52623U 22052AB  22285.80801718  .00008512  00000-0  55214-3 0  9997,2 52623  53.2168  93.1292 0002087  43.0805 317.0350 15.08846878 23209,6917.859,95.437,541.168,538.281,0.0
52623.0,STARLINK-3986,PAYLOAD,2022-10-13 11:17:23,15.08851017,0.0002333,53.218,90.153,44.9024,315.2157,0.00052219,8.035e-05,0.0,0 STARLINK-3986,1 52623U 22052AB  22286.47041621  .00008035  00000-0  52219-3 0  9992,2 52623  53.2180  90.1530 0002333  44.9024 315.2157 15.08851017 23309,6917.847,95.437,541.326,538.0980000000002,0.0
52623.0,STARLINK-3986,PAYLOAD,2022-10-13 14:28:10,15.08850285,0.0002137,53.2171,89.5607,44.3805,315.7358,0.0003839,5.829e-05,0.0,0 STARLINK-3986,1 52623U 22052AB  22286.60289562  .00005829  00000-0  38390-3 0  9997,2 52623  53.2171  89.5607 0002137  44.3805 315.7358 15.08850285 23707,6917.849,95.437,541.192,538.236,0.0
52623.0,STARLINK-3986,PAYLOAD,2022-10-13 19:14:19,15.08852863,0.0002139,53.2172,88.6685,43.7263,316.3898,0.0003776,5.729e-05,0.0,0 STARLINK-3986,1 52623U 22052AB  22286.80161377  .00005729  00000-0  37760-3 0  9991,2 52623  53.2172  88.6685 0002139  43.7263 316.3898 15.08852863 23358,6917.840999999999,95.437,541.186,538.226,0.0
52623.0,STARLINK-3986,PAYLOAD,2022-10-14 12:43:33,15.08854002,0.0002158,53.2185,85.3999,47.4921,312.6253,0.00020556,2.986e-05,0.0,0 STARLINK-3986,1 52623U 22052AB  22287.53024926  .00002986  00000-0  20556-3 0  9997,2 52623  53.2185  85.3999 0002158  47.4921 312.6253 15.08854002 23460,6917.8380000000025,95.437,541.195,538.21,0.0
52623.0,STARLINK-3986,PAYLOAD,2022-10-14 17:29:42,15.08850232,0.0002133999999999,53.2181,84.5066,46.2238,313.893,0.0001075999999999,1.425e-05,0.0,0 STARLINK-3986,1 52623U 22052AB  22287.72896893  .00001425  00000-0  10760-3 0  9991,2 52623  53.2181  84.5066 0002134  46.2238 313.8930 15.08850232 23875,6917.849,95.437,541.19,538.238,0.0
52623.0,STARLINK-3986,PAYLOAD,2022-10-14 20:40:29,15.08849476,0.0002054,53.2181,83.9117,39.6309,320.4833,9.5658e-05,1.235e-05,0.0,0 STARLINK-3986,1 52623U 22052AB  22287.86144845  .00001235  00000-0  95658-4 0  9998,2 52623  53.2181  83.9117 0002054  39.6309 320.4833 15.08849476 23516,6917.851,95.437,541.137,538.295,0.0
52623.0,STARLINK-3986,PAYLOAD,2022-10-15 12:34:20,15.08848176,0.0002103,53.2171,80.9373,40.4303,319.6845,8.8967e-05,1.128e-05,0.0,0 STARLINK-3986,1 52623U 22052AB  22288.52384585  .00001128  00000-0  88967-4 0  9995,2 52623  53.2171  80.9373 0002103  40.4303 319.6845 15.08848176 23615,6917.855,95.437,541.175,538.266,0.0
52623.0,STARLINK-3986,PAYLOAD,2022-10-15 18:55:52,15.08843722,0.0002343,53.2176,79.7492,38.0576,322.0581,-8.1578e-06,-4.18e-06,0.0,0 STARLINK-3986,1 52623U 22052AB  22288.78880659 -.00000418  00000-0 -81578-5 0  9991,2 52623  53.2176  79.7492 0002343  38.0576 322.0581 15.08843722 24033,6917.869000000002,95.437,541.355,538.113,0.0
52623.0,STARLINK-3986,PAYLOAD,2022-10-16 10:49:45,15.08826399,0.0001724,53.2181,76.7729,51.3899,308.7248,-0.00016405,-2.897e-05,0.0,0 STARLINK-3986,1 52623U 22052AB  22289.45121682 -.00002897  00000-0 -16405-3 0  9998,2 52623  53.2181  76.7729 0001724  51.3899 308.7248 15.08826399 24130,6917.922,95.438,540.98,538.594,0.0
52623.0,STARLINK-3986,PAYLOAD,2022-10-16 12:25:08,15.08817565,0.00022,53.2175,76.4771,13.2647,346.8403,-0.00026805,-4.549e-05,0.0,0 STARLINK-3986,1 52623U 22052AB  22289.51746331 -.00004549  00000-0 -26805-3 0  9990,2 52623  53.2175  76.4771 0002200  13.2647 346.8403 15.08817565 23764,6917.949000000001,95.439,541.336,538.2919999999998,0.0
52623.0,STARLINK-3986,PAYLOAD,2022-10-16 17:11:18,15.08817584,0.0002034,53.2179,75.5855,38.2197,321.8939,-0.00026027,-4.426e-05,0.0,0 STARLINK-3986,1 52623U 22052AB  22289.71618603 -.00004426  00000-0 -26027-3 0  9992,2 52623  53.2179  75.5855 0002034  38.2197 321.8939 15.08817584 23794,6917.949000000001,95.439,541.221,538.4069999999998,0.0
